{
  "type": "FeatureCollection",
  "name": "wuchang_community_three_li_official_boundary",
  "features": [
    {
      "type": "Feature",
      "properties": {
        "name": "五常里",
        "city": "新北市",
        "district": "三重區",
        "admit_id": "02",
        "village": "五常里",
        "village_id": "095",
        "tm2x": 300312.58594,
        "tm2y": 2774789.31209,
        "source_dataset": "新北市里界圖資",
        "source_agency": "新北市政府民政局",
        "source_url": "https://data.gov.tw/dataset/169927",
        "download_url": "https://data.ntpc.gov.tw/api/datasets/8bbd1aca-752c-4df0-b515-1cfd88b36274/csv/zip",
        "association_information_responsibility": "community_association_public_interest_collection_preservation_research",
        "information_scope": [
          "human_culture",
          "hydrology",
          "geography",
          "local_culture",
          "local_history"
        ],
        "governance_note": "社區發展協會對人文、水文、地理、文化、歷史資訊有公益收集、儲存、研究與保護責任；涉及個資、會員位置、精密住址時仍需最小必要、分級權限與 audit。",
        "crs_source": "TWD97 / TM2 zone 121 (EPSG:3826)",
        "crs_output": "WGS84 (EPSG:4326)",
        "boundary_precision": "official_open_data_polygon",
        "created_at": "2026-05-24T00:00:00+08:00"
      },
      "geometry": {
        "type": "Polygon",
        "coordinates": [
          [
            [
              121.501576341389,
              25.084542858429
            ],
            [
              121.501782168852,
              25.084238603049
            ],
            [
              121.502482707075,
              25.083200218049
            ],
            [
              121.504030951279,
              25.080075819021
            ],
            [
              121.504559077142,
              25.078399274304
            ],
            [
              121.504739607018,
              25.077929201322
            ],
            [
              121.504745756214,
              25.077917895335
            ],
            [
              121.504762336087,
              25.077881771846
            ],
            [
              121.501866957894,
              25.077453729129
            ],
            [
              121.501804926455,
              25.077440927228
            ],
            [
              121.499391938274,
              25.076942918194
            ],
            [
              121.498595143254,
              25.076751429767
            ],
            [
              121.49753954221,
              25.076497736671
            ],
            [
              121.496226802415,
              25.078652702419
            ],
            [
              121.493766521502,
              25.077512894025
            ],
            [
              121.493619169484,
              25.077717179801
            ],
            [
              121.493136113685,
              25.078290605695
            ],
            [
              121.492743957635,
              25.078789242713
            ],
            [
              121.492996178064,
              25.078938451256
            ],
            [
              121.495046959953,
              25.080151622958
            ],
            [
              121.495900472898,
              25.080617831155
            ],
            [
              121.495800672076,
              25.080765243608
            ],
            [
              121.496886301048,
              25.081343912723
            ],
            [
              121.496896510451,
              25.081349354543
            ],
            [
              121.497173791013,
              25.08151333893
            ],
            [
              121.497023154017,
              25.081720768231
            ],
            [
              121.498518974422,
              25.082722650836
            ],
            [
              121.501576341389,
              25.084542858429
            ]
          ]
        ]
      }
    },
    {
      "type": "Feature",
      "properties": {
        "name": "五順里",
        "city": "新北市",
        "district": "三重區",
        "admit_id": "02",
        "village": "五順里",
        "village_id": "119",
        "tm2x": 300147.25586,
        "tm2y": 2774953.82536,
        "source_dataset": "新北市里界圖資",
        "source_agency": "新北市政府民政局",
        "source_url": "https://data.gov.tw/dataset/169927",
        "download_url": "https://data.ntpc.gov.tw/api/datasets/8bbd1aca-752c-4df0-b515-1cfd88b36274/csv/zip",
        "association_information_responsibility": "community_association_public_interest_collection_preservation_research",
        "information_scope": [
          "human_culture",
          "hydrology",
          "geography",
          "local_culture",
          "local_history"
        ],
        "governance_note": "社區發展協會對人文、水文、地理、文化、歷史資訊有公益收集、儲存、研究與保護責任；涉及個資、會員位置、精密住址時仍需最小必要、分級權限與 audit。",
        "crs_source": "TWD97 / TM2 zone 121 (EPSG:3826)",
        "crs_output": "WGS84 (EPSG:4326)",
        "boundary_precision": "official_open_data_polygon",
        "created_at": "2026-05-24T00:00:00+08:00"
      },
      "geometry": {
        "type": "Polygon",
        "coordinates": [
          [
            [
              121.501207276704,
              25.085089025249
            ],
            [
              121.501327650505,
              25.084910472407
            ],
            [
              121.501576341389,
              25.084542858429
            ],
            [
              121.498518974422,
              25.082722650836
            ],
            [
              121.497023154017,
              25.081720768231
            ],
            [
              121.497173791013,
              25.08151333893
            ],
            [
              121.496896510451,
              25.081349354543
            ],
            [
              121.496886301048,
              25.081343912723
            ],
            [
              121.495800672076,
              25.080765243608
            ],
            [
              121.495900472898,
              25.080617831155
            ],
            [
              121.495046959953,
              25.080151622958
            ],
            [
              121.492996178064,
              25.078938451256
            ],
            [
              121.492681487167,
              25.07933649769
            ],
            [
              121.494732088499,
              25.080578315958
            ],
            [
              121.494373109872,
              25.081064775345
            ],
            [
              121.495762142405,
              25.081923235839
            ],
            [
              121.497054422919,
              25.082693112817
            ],
            [
              121.498393440018,
              25.083465657207
            ],
            [
              121.501207276704,
              25.085089025249
            ]
          ]
        ]
      }
    },
    {
      "type": "Feature",
      "properties": {
        "name": "仁忠里",
        "city": "新北市",
        "district": "三重區",
        "admit_id": "02",
        "village": "仁忠里",
        "village_id": "097",
        "tm2x": 300049.5166,
        "tm2y": 2774989.72401,
        "source_dataset": "新北市里界圖資",
        "source_agency": "新北市政府民政局",
        "source_url": "https://data.gov.tw/dataset/169927",
        "download_url": "https://data.ntpc.gov.tw/api/datasets/8bbd1aca-752c-4df0-b515-1cfd88b36274/csv/zip",
        "association_information_responsibility": "community_association_public_interest_collection_preservation_research",
        "information_scope": [
          "human_culture",
          "hydrology",
          "geography",
          "local_culture",
          "local_history"
        ],
        "governance_note": "社區發展協會對人文、水文、地理、文化、歷史資訊有公益收集、儲存、研究與保護責任；涉及個資、會員位置、精密住址時仍需最小必要、分級權限與 audit。",
        "crs_source": "TWD97 / TM2 zone 121 (EPSG:3826)",
        "crs_output": "WGS84 (EPSG:4326)",
        "boundary_precision": "official_open_data_polygon",
        "created_at": "2026-05-24T00:00:00+08:00"
      },
      "geometry": {
        "type": "Polygon",
        "coordinates": [
          [
            [
              121.501037546924,
              25.085340787752
            ],
            [
              121.501207276704,
              25.085089025249
            ],
            [
              121.498393440018,
              25.083465657207
            ],
            [
              121.497054422919,
              25.082693112817
            ],
            [
              121.495762142405,
              25.081923235839
            ],
            [
              121.494373109872,
              25.081064775345
            ],
            [
              121.494732088499,
              25.080578315958
            ],
            [
              121.492681487167,
              25.07933649769
            ],
            [
              121.492064853627,
              25.080116456209
            ],
            [
              121.494169770405,
              25.081340320609
            ],
            [
              121.495718777187,
              25.082254006557
            ],
            [
              121.496701156919,
              25.082860819522
            ],
            [
              121.497861951135,
              25.083525440961
            ],
            [
              121.497923014236,
              25.083645308471
            ],
            [
              121.501037546924,
              25.085340787752
            ]
          ]
        ]
      }
    }
  ]
}
