{
  "type": "FeatureCollection",
  "name": "wuchang_community_jurisdiction_anchor",
  "features": [
    {
      "type": "Feature",
      "properties": {
        "name": "五常社區",
        "source_file": "/mnt/c/Users/o0930/Downloads/Google 地球-20260512T094453Z-3-001/Google 地球/五常社區轄區圖.kml",
        "source_sha256": "38c3a7fe82a7fd9edd336c1425632fcb1d9373cd71901d4830011853824ee1ac",
        "role": "jurisdiction_anchor_point_not_boundary_polygon",
        "geohash12": "wsqqsvb05tqj",
        "altitude_m": 1.46854201938258,
        "metric_database_use": "topology_anchor_seed",
        "boundary_precision": "point_only_polygon_missing",
        "created_at": "2026-05-12T18:30:00+08:00"
      },
      "geometry": {
        "type": "Point",
        "coordinates": [
          121.497961092329,
          25.0804429673534,
          1.46854201938258
        ]
      }
    }
  ]
}