<?xml version="1.0" encoding="UTF-8"?>
<kml xmlns="http://www.opengis.net/kml/2.2">
  <Document>
    <name>新北市三重區五常社區三里官方里界</name>
    <description>來源：政府資料開放平臺「新北市里界圖資」，提供機關：新北市政府民政局。範圍：五常里、五順里、仁忠里。五常社區發展協會對人文、水文、地理、文化、歷史資訊有公益收集、儲存、研究與保護責任。</description>
    <Style id="style_五常里"><LineStyle><color>ff333333</color><width>2</width></LineStyle><PolyStyle><color>7d00ff00</color></PolyStyle></Style>
    <Style id="style_五順里"><LineStyle><color>ff333333</color><width>2</width></LineStyle><PolyStyle><color>7d00ffff</color></PolyStyle></Style>
    <Style id="style_仁忠里"><LineStyle><color>ff333333</color><width>2</width></LineStyle><PolyStyle><color>7dff9900</color></PolyStyle></Style>
    <Placemark>
      <name>五常里</name>
      <styleUrl>#style_五常里</styleUrl>
      <description><![CDATA[行政區：新北市三重區<br/>里別：五常里<br/>里代碼：095<br/>來源：新北市里界圖資 / 新北市政府民政局<br/>授權：政府資料開放授權條款-第1版<br/>協會責任：人文、水文、地理、文化、歷史資訊之公益收集、儲存、研究與保護]]></description>
      <Polygon><outerBoundaryIs><LinearRing>
        <coordinates>121.501576341389,25.084542858429,0 121.501782168852,25.084238603049,0 121.502482707075,25.083200218049,0 121.504030951279,25.080075819021,0 121.504559077142,25.078399274304,0 121.504739607018,25.077929201322,0 121.504745756214,25.077917895335,0 121.504762336087,25.077881771846,0 121.501866957894,25.077453729129,0 121.501804926455,25.077440927228,0 121.499391938274,25.076942918194,0 121.498595143254,25.076751429767,0 121.49753954221,25.076497736671,0 121.496226802415,25.078652702419,0 121.493766521502,25.077512894025,0 121.493619169484,25.077717179801,0 121.493136113685,25.078290605695,0 121.492743957635,25.078789242713,0 121.492996178064,25.078938451256,0 121.495046959953,25.080151622958,0 121.495900472898,25.080617831155,0 121.495800672076,25.080765243608,0 121.496886301048,25.081343912723,0 121.496896510451,25.081349354543,0 121.497173791013,25.08151333893,0 121.497023154017,25.081720768231,0 121.498518974422,25.082722650836,0 121.501576341389,25.084542858429,0</coordinates>
      </LinearRing></outerBoundaryIs></Polygon>
    </Placemark>
    <Placemark>
      <name>五順里</name>
      <styleUrl>#style_五順里</styleUrl>
      <description><![CDATA[行政區：新北市三重區<br/>里別：五順里<br/>里代碼：119<br/>來源：新北市里界圖資 / 新北市政府民政局<br/>授權：政府資料開放授權條款-第1版<br/>協會責任：人文、水文、地理、文化、歷史資訊之公益收集、儲存、研究與保護]]></description>
      <Polygon><outerBoundaryIs><LinearRing>
        <coordinates>121.501207276704,25.085089025249,0 121.501327650505,25.084910472407,0 121.501576341389,25.084542858429,0 121.498518974422,25.082722650836,0 121.497023154017,25.081720768231,0 121.497173791013,25.08151333893,0 121.496896510451,25.081349354543,0 121.496886301048,25.081343912723,0 121.495800672076,25.080765243608,0 121.495900472898,25.080617831155,0 121.495046959953,25.080151622958,0 121.492996178064,25.078938451256,0 121.492681487167,25.07933649769,0 121.494732088499,25.080578315958,0 121.494373109872,25.081064775345,0 121.495762142405,25.081923235839,0 121.497054422919,25.082693112817,0 121.498393440018,25.083465657207,0 121.501207276704,25.085089025249,0</coordinates>
      </LinearRing></outerBoundaryIs></Polygon>
    </Placemark>
    <Placemark>
      <name>仁忠里</name>
      <styleUrl>#style_仁忠里</styleUrl>
      <description><![CDATA[行政區：新北市三重區<br/>里別：仁忠里<br/>里代碼：097<br/>來源：新北市里界圖資 / 新北市政府民政局<br/>授權：政府資料開放授權條款-第1版<br/>協會責任：人文、水文、地理、文化、歷史資訊之公益收集、儲存、研究與保護]]></description>
      <Polygon><outerBoundaryIs><LinearRing>
        <coordinates>121.501037546924,25.085340787752,0 121.501207276704,25.085089025249,0 121.498393440018,25.083465657207,0 121.497054422919,25.082693112817,0 121.495762142405,25.081923235839,0 121.494373109872,25.081064775345,0 121.494732088499,25.080578315958,0 121.492681487167,25.07933649769,0 121.492064853627,25.080116456209,0 121.494169770405,25.081340320609,0 121.495718777187,25.082254006557,0 121.496701156919,25.082860819522,0 121.497861951135,25.083525440961,0 121.497923014236,25.083645308471,0 121.501037546924,25.085340787752,0</coordinates>
      </LinearRing></outerBoundaryIs></Polygon>
    </Placemark>
  </Document>
</kml>
