{
  "type": "FeatureCollection",
  "name": "wuchang_community_three_li_scope",
  "features": [
    {
      "type": "Feature",
      "properties": {
        "name": "新北市三重區五常社區發展協會三里轄區",
        "association": "新北市三重區五常社區發展協會",
        "declared_areas": [
          "新北市三重區五常里",
          "新北市三重區五順里",
          "新北市三重區仁忠里"
        ],
        "role": "three_li_jurisdiction_scope_anchor_not_boundary_polygon",
        "source_basis": [
          "Taiji_Governance/policies/community_association_data_authority_policy_2026-05-11.md",
          "Taiji_Governance/system_info/wuchang_jurisdiction_coordinate_seed.manifest.json",
          "owner_confirmed_2026-05-24"
        ],
        "anchor_source_file": "data/geospatial/wuchang_community_jurisdiction_2026-05-12.kml",
        "anchor_source_sha256": "38c3a7fe82a7fd9edd336c1425632fcb1d9373cd71901d4830011853824ee1ac",
        "boundary_precision": "scope_declared_polygon_missing",
        "official_polygon_verified": false,
        "allowed_use": "community_map_anchor_and_scope_label",
        "forbidden_use": "do_not_use_as_precise_legal_boundary_or_member_location_inference",
        "created_at": "2026-05-24T00:00:00+08:00"
      },
      "geometry": {
        "type": "Point",
        "coordinates": [
          121.497961092329,
          25.0804429673534,
          1.46854201938258
        ]
      }
    }
  ]
}
